GSAT0101 (GALILEO-PFM)  
1 37846U 11060A   25190.86930172 -.00000077  00000+0  00000+0 0  9992
2 37846  57.0910 351.0434 0002529  58.0149 302.0097  1.70475859 85287
GSAT0102 (GALILEO-FM2)  
1 37847U 11060B   25191.37901359 -.00000076  00000+0  00000+0 0  9994
2 37847  57.0917 351.0299 0002339   9.5154 348.6940  1.70476022 85297
GSAT0103 (GALILEO-FM3)  
1 38857U 12055A   25191.49567537 -.00000011  00000+0  00000+0 0  9999
2 38857  55.6004 110.9320 0004194 295.7494  64.2020  1.70473578 79188
GSAT0201 (GALILEO 5)    
1 40128U 14050A   25190.08227743 -.00000048  00000+0  00000+0 0  9996
2 40128  49.2483 287.4377 1634476 166.2294 198.8822  1.85519831 73892
GSAT0202 (GALILEO 6)    
1 40129U 14050B   25190.87809697 -.00000040  00000+0  00000+0 0  9990
2 40129  49.2631 286.4872 1634707 167.0299 197.7984  1.85520478 74132
GSAT0203 (GALILEO 7)    
1 40544U 15017A   25191.82109698 -.00000075  00000+0  00000+0 0  9993
2 40544  56.8854 350.8988 0002425 249.7171 110.2557  1.70476204 63382
GSAT0204 (GALILEO 8)    
1 40545U 15017B   25192.07611426 -.00000075  00000+0  00000+0 0  9999
2 40545  56.8913 350.9091 0002465 227.0981 132.8800  1.70475765 26434
GSAT0205 (GALILEO 9)    
1 40889U 15045A   25190.67107840  .00000082  00000+0  00000+0 0  9992
2 40889  55.0586 231.0656 0002760   9.2239 350.8804  1.70473773 61175
GSAT0206 (GALILEO 10)   
1 40890U 15045B   25189.13198292  .00000077  00000+0  00000+0 0  9998
2 40890  55.0581 231.1034 0001842 304.8557  55.2249  1.70473895 61174
GSAT0209 (GALILEO 12)   
1 41174U 15079A   25191.06031843 -.00000013  00000+0  00000+0 0  9995
2 41174  55.6202 110.6568 0004688 337.6116  22.3604  1.70473809 58941
GSAT0208 (GALILEO 11)   
1 41175U 15079B   25187.17422157 -.00000020  00000+0  00000+0 0  9993
2 41175  55.6168 110.7607 0004283 336.1440  23.8175  1.70473849 59295
GSAT0211 (GALILEO 14)   
1 41549U 16030A   25190.23086401  .00000081  00000+0  00000+0 0  9991
2 41549  55.2073 231.1262 0003185 309.1675  50.9037  1.70473823 56800
GSAT0210 (GALILEO 13)   
1 41550U 16030B   25191.66180287  .00000083  00000+0  00000+0 0  9990
2 41550  55.2063 231.0849 0004377 236.2364 123.8192  1.70474001 56845
GSAT0207 (GALILEO 15)   
1 41859U 16069A   25191.94028872 -.00000010  00000+0  00000+0 0  9997
2 41859  55.2886 110.5395 0004975 320.7468  39.2155  1.70473768 53581
GSAT0212 (GALILEO 16)   
1 41860U 16069B   25187.10145151 -.00000021  00000+0  00000+0 0  9994
2 41860  55.2837 110.6691 0003850 358.0627   1.9170  1.70473852 53757
GSAT0213 (GALILEO 17)   
1 41861U 16069C   25192.16202131 -.00000009  00000+0  00000+0 0  9995
2 41861  55.2886 110.5364 0004481 303.8333  56.1240  1.70474380 53703
GSAT0214 (GALILEO 18)   
1 41862U 16069D   25191.13457383 -.00000013  00000+0  00000+0 0  9998
2 41862  55.2865 110.5578 0003667 309.9943  49.9664  1.70473946 53816
GSAT0215 (GALILEO 19)   
1 43055U 17079A   25191.62462957  .00000084  00000+0  00000+0 0  9990
2 43055  55.1845 230.9041 0003889 261.8019  98.2512  1.70474469 47168
GSAT0216 (GALILEO 20)   
1 43056U 17079B   25188.39653943  .00000073  00000+0  00000+0 0  9996
2 43056  55.1857 230.9931 0004449 269.3311  90.7136  1.70474798 47097
GSAT0217 (GALILEO 21)   
1 43057U 17079C   25189.79033672  .00000080  00000+0  00000+0 0  9991
2 43057  55.1833 230.9527 0003873 283.7362  76.3198  1.70474642 47130
GSAT0218 (GALILEO 22)   
1 43058U 17079D   25192.35672964  .00000083  00000+0  00000+0 0  9994
2 43058  55.1828 230.8798 0005154 268.0773  91.9582  1.70474550 47172
GSAT0221 (GALILEO 25)   
1 43564U 18060A   25191.08602774 -.00000076  00000+0  00000+0 0  9991
2 43564  57.2657 351.0170 0002440 285.3078  74.6648  1.70476125 43337
GSAT0222 (GALILEO 26)   
1 43565U 18060B   25188.95880446 -.00000080  00000+0  00000+0 0  9993
2 43565  57.2697 351.0767 0002361 229.9813 130.0006  1.70475950 43348
GSAT0219 (GALILEO 23)   
1 43566U 18060C   25187.42038650 -.00000085  00000+0  00000+0 0  9992
2 43566  57.2694 351.1198 0001664 305.8929  54.0959  1.70476166 43298
GSAT0220 (GALILEO 24)   
1 43567U 18060D   25192.33388848 -.00000074  00000+0  00000+0 0  9994
2 43567  57.2683 350.9886 0001810 290.2126  69.7664  1.70475994 43369
GSAT0223 (GALILEO 27)   
1 49809U 21116A   25191.60335653 -.00000075  00000+0  00000+0 0  9991
2 49809  57.2585 350.8998 0002264 179.5909 182.6967  1.70476229 22360
GSAT0224 (GALILEO 28)   
1 49810U 21116B   25189.07185029 -.00000080  00000+0  00000+0 0  9997
2 49810  57.2604 350.9660 0001743 159.4399 201.7639  1.70476422 22344
GSAT0225 (GALILEO 29)   
1 59598U 24079A   25191.72023850 -.00000011  00000+0  00000+0 0  9994
2 59598  54.9063 110.6335 0001468 260.3706 278.4090  1.70474214  7497
GSAT0227 (GALILEO 30)   
1 59600U 24079C   25187.50621458 -.00000021  00000+0  00000+0 0  9998
2 59600  54.8998 110.7504 0001598  62.0129 297.9841  1.70474133  7474
GSAT0232 (GALILEO 32)   
1 61182U 24167A   25191.50484190  .00000084  00000+0  00000+0 0  9997
2 61182  55.2948 230.6877 0005201 227.2823 261.8137  1.70474214  5058
GSAT0226 (GALILEO 31)   
1 61183U 24167B   25192.44478353  .00000083  00000+0  00000+0 0  9995
2 61183  55.2932 230.6674 0002988 222.8232 235.7376  1.70474289  5047
